CUTE-1 (CO-55)          
1 27844U 03031E   21046.91440139  .00000042  00000-0  38619-4 0  9993
2 27844  98.6825  56.9578 0010904  73.0743 287.1629 14.22288262914706
CUBESAT XI-IV (CO-57)   
1 27848U 03031J   21046.30858952  .00000023  00000-0  30180-4 0  9990
2 27848  98.6885  56.9293 0010853  86.3951 273.8467 14.21867880914453
CUBESAT XI-V            
1 28895U 05043F   21046.89634545  .00000112  00000-0  30428-4 0  9996
2 28895  98.0383 182.9354 0015848 230.2231 129.7577 14.63864747816223
CUTE-1.7+APD II (CO-65) 
1 32785U 08021C   21047.21088667  .00000220  00000-0  29221-4 0  9992
2 32785  97.5989  30.8545 0014179  49.6086 310.6366 14.88631908694208
AAUSAT-II               
1 32788U 08021F   21046.98231815  .00000246  00000-0  27227-4 0  9995
2 32788  97.5000  46.7825 0010764 324.1317  35.9181 14.95388174695807
DELFI-C3 (DO-64)        
1 32789U 08021G   21046.91359786  .00001459  00000-0  97336-4 0  9992
2 32789  97.3915  86.9038 0011669 192.7993 167.2941 15.08489948698506
SEEDS II (CO-66)        
1 32791U 08021J   21046.71901428  .00000446  00000-0  50157-4 0  9994
2 32791  97.5611  36.4017 0013684  18.3109 341.8599 14.91276056694636
SWISSCUBE               
1 35932U 09051B   21047.03588355  .00000115  00000-0  36927-4 0  9996
2 35932  98.6074 243.1825 0008675  99.2049 261.0129 14.56488101605327
BEESAT-1                
1 35933U 09051C   21046.52566648  .00000095  00000-0  32467-4 0  9993
2 35933  98.6049 244.5070 0006802 111.2550 248.9374 14.56551806605283
ITUPSAT1                
1 35935U 09051E   21046.80109779  .00000077  00000-0  28799-4 0  9997
2 35935  98.6154 244.9526 0009126 111.8238 248.3930 14.55688948605079
TISAT 1                 
1 36799U 10035E   21046.76890084  .00000271  00000-0  33143-4 0  9996
2 36799  98.2041 232.6563 0010985 250.5748 109.4283 14.91600597575197
M-CUBED & EXP-1 PRIME   
1 37855U 11061F   21046.56113825  .00001047  00000-0  58191-4 0  9991
2 37855 101.7253 266.7563 0168336  73.1117 288.8477 15.07192161508281
AEROCUBE 4.5A           
1 38767U 12048K   21047.12501758  .00000225  00000-0  33563-4 0  9992
2 38767  64.6655 194.2809 0139408  47.6146 313.6665 14.92582659 78164
AEROCUBE 4.5B           
1 38768U 12048L   21046.72863729  .00000349  00000-0  40474-4 0  9993
2 38768  64.6669 159.6929 0130708  42.0820 319.0241 14.96368031 78272
STRAND-1                
1 39090U 13009E   21046.81803427 -.00000003  00000-0  13935-4 0  9999
2 39090  98.4363 251.8138 0008035 282.4270  77.6016 14.35168370417596
SOMP                    
1 39134U 13015E   21046.84556925  .00001620  00000-0  79543-4 0  9998
2 39134  64.8614 207.7649 0009183 221.7506 138.2922 15.21989487432707
BEESAT-3                
1 39135U 13015F   21046.92213409  .00001118  00000-0  62808-4 0  9993
2 39135  64.8645 234.7426 0012426 200.3127 159.7507 15.18911709432188
BEESAT-2                
1 39136U 13015G   21047.00143993  .00001011  00000-0  58453-4 0  9997
2 39136  64.8731 240.3838 0028018 259.7069 100.0898 15.18298256432471
NEE-01 PEGASO           
1 39151U 13018B   21047.02644593  .00000142  00000-0  25616-4 0  9990
2 39151  97.9744 150.2526 0017639  35.6454 324.5932 14.80285333421715
ESTCUBE 1               
1 39161U 13021C   21047.04887748  .00000144  00000-0  30492-4 0  9998
2 39161  97.9462 130.9980 0009494 173.9083 186.2241 14.72423938417881
POPACS 1                
1 39268U 13055D   21046.71416564  .00002794  00000-0  75585-4 0  9995
2 39268  81.0009  38.5953 0607360 218.4861 137.1523 14.41461510383017
POPACS 2                
1 39269U 13055E   21046.81697706  .00003046  00000-0  86877-4 0  9993
2 39269  81.0114  82.3329 0670781 331.9075  24.7358 14.27035359380672
POPACS 3                
1 39270U 13055F   21046.89292652  .00001713  00000-0  51437-4 0  9997
2 39270  81.0146 107.3715 0706444  43.3810 322.0785 14.17901906380311
ZACUBE-1 (TSHEPISOSAT)  
1 39417U 13066B   21047.21261178  .00000181  00000-0  28986-4 0  9999
2 39417  97.5831  37.8964 0058190 197.2591 162.6645 14.81427801391125
WNISAT-1                
1 39423U 13066H   21047.20959062  .00000057  00000-0  21347-4 0  9997
2 39423  97.8016 318.0379 0173994 215.1790 143.7813 14.53185043383828
TRITON-1                
1 39427U 13066M   21047.14247456  .00000246  00000-0  46893-4 0  9994
2 39427  97.7608   1.0088 0114058  19.4832 341.0680 14.68151210387613
GOMX-1                  
1 39430U 13066Q   21047.05483453  .00000157  00000-0  37014-4 0  9993
2 39430  97.8105 337.1241 0151530 136.8558 224.4645 14.59533871385338
CUBEBUG-2 (LO-74)       
1 39440U 13066AA  21047.18906230  .00000191  00000-0  33682-4 0  9996
2 39440  97.6616  22.6282 0078430 269.0788  90.1436 14.76162639389739
NEE-02 KRYSAOR          
1 39441U 13066AB  21047.16460761  .00000120  00000-0  24361-4 0  9995
2 39441  97.6706  19.9985 0080068 279.6720  79.5452 14.75124124389490
FUNCUBE-1 (AO-73)       
1 39444U 13066AE  21047.20273055  .00000216  00000-0  32584-4 0  9993
2 39444  97.5748  40.2228 0057493 188.1921 171.8360 14.82315565390066
UWE-3                   
1 39446U 13066AG  21046.89584604  .00000176  00000-0  30066-4 0  9992
2 39446  97.6241  29.3991 0068481 235.0636 124.4130 14.78696349388542
AEROCUBE 5A             
1 39465U 13072D   21046.73969418  .00003018  00000-0  24960-3 0  9996
2 39465 120.4952 326.0240 0262139 132.8065 229.5343 14.79498817 77322
AEROCUBE 5B             
1 39466U 13072E   21046.85637180  .00006390  00000-0  41655-3 0  9994
2 39466 120.4703  16.7016 0232645 143.7246 217.9830 14.89886324 77790
BRITE-CA1 (TORONTO)     
1 40020U 14033L   21047.03621356  .00000107  00000-0  26513-4 0  9996
2 40020  97.7329 227.3523 0087657  16.2584 344.1401 14.66707380356461
DUCHIFAT-1              
1 40021U 14033M   21046.88587772  .00000362  00000-0  42270-4 0  9993
2 40021  97.9630 345.8815 0012118 199.3277 160.7483 14.91180242362167
NANOSATC-BR1            
1 40024U 14033Q   21047.04745950  .00000282  00000-0  34917-4 0  9999
2 40024  97.9438 341.5763 0011382 204.0036 156.0652 14.90304440362039
QB50P1                  
1 40025U 14033R   21046.75122290  .00000322  00000-0  39937-4 0  9995
2 40025  97.9278 337.1751 0011468 213.9424 146.1060 14.89329004361308
QB50P2                  
1 40032U 14033Y   21046.74438047  .00000295  00000-0  37517-4 0  9993
2 40032  97.9134 334.0646 0010943 210.7270 149.3307 14.88844867361180
PERSEUS-M2              
1 40037U 14033AD  21047.19259133  .00000067  00000-0  13823-4 0  9996
2 40037  97.8912 327.6947 0013216 229.5779 130.4284 14.86626234361378
PERSEUS-M1              
1 40039U 14033AF  21047.19698214  .00000072  00000-0  14453-4 0  9991
2 40039  97.8860 326.1977 0013100 227.7948 132.2156 14.86246959361289
POLYITAN-1              
1 40042U 14033AJ  21047.05536796  .00000321  00000-0  40005-4 0  9995
2 40042  97.9369 338.1846 0013813 204.1616 155.8954 14.89114352361751
TIGRISAT                
1 40043U 14033AK  21046.51113884  .00000116  00000-0  24488-4 0  9994
2 40043  97.6836 256.6484 0058550 293.4033  66.1026 14.74478524357860
AEROCUBE 6A             
1 40045U 14033AM  21047.04972432  .00000186  00000-0  33847-4 0  9993
2 40045  97.7084 263.8422 0056511 281.8418  77.6458 14.75736147358274
AEROCUBE 6B             
1 40046U 14033AN  21047.05949904  .00000259  00000-0  44219-4 0  9999
2 40046  97.6982 262.8358 0055483 280.6888  78.8077 14.75745988358412
UKUBE-1                 
1 40074U 14037F   21047.05390547  .00000312  00000-0  44219-4 0  9997
2 40074  98.4410 255.8023 0005366  60.4983 299.6758 14.84454825357891
BRITE-PL2 (HEWELIUSZ)   
1 40119U 14049B   21046.70762079  .00000132  00000-0  22052-4 0  9995
2 40119  97.8881 142.4950 0018138  38.1142 322.1351 14.84600430351784
FIREBIRD 4              
1 40378U 15003C   21047.10421064  .00003071  00000-0  11662-3 0  9993
2 40378  99.0832 163.2829 0119783 218.9144 140.3420 15.21465521334347
GRIFEX                  
1 40379U 15003D   21047.09769692  .00001647  00000-0  71197-4 0  9991
2 40379  99.0828 153.6014 0129292 249.0286 109.7068 15.17361928333785
CP10 (EXOCUBE)          
1 40380U 15003E   21047.04438548  .00001022  00000-0  48385-4 0  9991
2 40380  99.0863 148.4392 0134596 266.8470  91.7350 15.15150808333439
AEROCUBE 8A             
1 40659U 15025J   21046.91428389  .00028083  00000-0  20733-3 0  9993
2 40659  55.0100 238.6939 0082783  93.2812 267.7704 15.68230391 81594
AEROCUBE 8B             
1 40660U 15025K   21046.56538745  .00030692  00000-0  22118-3 0  9992
2 40660  55.0071 237.4121 0081355  94.9415 266.0920 15.68871874 81560
TIANWANG 1C (TW-1C)     
1 40926U 15051B   21047.11282902  .00347318  54351-4  60367-3 0  9995
2 40926  97.0341 109.4239 0004374 216.8180 172.1733 16.02232786305390
TIANWANG 1A (TW-1A)     
1 40928U 15051D   21047.03981704  .00003518  00000-0  77556-4 0  9992
2 40928  97.0890  74.8859 0010654  27.9019  27.4742 15.44517928302943
EXACTVIEW 9             
1 40936U 15052G   21046.45858770  .00000785  00000-0  20645-4 0  9993
2 40936   6.0042  47.4173 0010018 102.8414 257.2834 14.76653309291133
AEROCUBE 5C             
1 40965U 15058B   21047.17448111  .00000056  00000-0  25430-4 0  9993
2 40965  64.7775 125.6676 0192613 348.5553  11.1199 14.74667335 77248
AEROCUBE 7              
1 40966U 15058C   21047.17065241  .00000113  00000-0  31645-4 0  9992
2 40966  64.7775 123.8004 0191564 348.2098  11.4550 14.75000470 77256
ATHENOXAT 1             
1 41168U 15077C   21047.22769097  .00002292  00000-0  82270-4 0  9994
2 41168  14.9839  71.9291 0011322 283.5557 149.1967 15.15180076286365
GALASSIA                
1 41170U 15077E   21046.69051142  .00002114  00000-0  72363-4 0  9997
2 41170  14.9896  66.9240 0012250 304.5135  55.4030 15.15439795286260
VELOX-II                
1 41171U 15077F   21046.82236997  .00001632  00000-0  53775-4 0  9996
2 41171  14.9912 118.9840 0008544 185.3841 174.6388 15.12217998285876
